ZHUHAI-1 01 (CAS-4A)    
1 42761U 17034D   23143.51777397  .00008469  00000+0  43040-3 0  9994
2 42761  43.0150 251.3213 0012632 301.3383  58.6228 15.17072746327897
MAX VALIER SAT          
1 42778U 17036P   23142.66685620  .00024503  00000+0  66116-3 0  9992
2 42778  97.1571 178.1312 0008955 177.9286 182.1998 15.37733971328805
RADFXSAT (FOX-1B)       
1 43017U 17073E   23142.93364258  .00006218  00000+0  43657-3 0  9999
2 43017  97.6333  28.2748 0235173 152.3285 209.0681 14.85749100297436
FOX-1D (AO-92)          
1 43137U 18004AC  23142.68389804  .00035456  00000+0  76644-3 0  9991
2 43137  97.3293 221.6320 0005658 214.5313 145.5569 15.44404181298378
DIWATA-2B               
1 43678U 18084H   23143.46462407  .00001796  00000+0  17697-3 0  9990
2 43678  98.0197 286.9424 0008425 239.0411 120.9981 14.93349724248570
ES'HAIL 2               
1 43700U 18090A   23142.89459088  .00000147  00000+0  00000+0 0  9995
2 43700   0.0148 330.4904 0001266 120.9181 136.6772  1.00270672 16430
FOX-1CLIFF (AO-95)      
1 43770U 18099N   23143.13847455  .00005196  00000+0  42606-3 0  9999
2 43770  97.5768 205.3537 0011104 208.7894 151.2718 14.99623516243858
ITASAT 1                
1 43786U 18099AE  23143.13554093  .00005339  00000+0  44082-3 0  9998
2 43786  97.5796 206.3823 0012600 196.6611 163.4200 14.99327837243891
JY1SAT (JO-97)          
1 43803U 18099AX  23142.91132409  .00006490  00000+0  51798-3 0  9997
2 43803  97.5686 206.1344 0012487 177.5498 182.5789 15.00558081243905
UWE-4                   
1 43880U 18111E   23142.70915846  .00005580  00000+0  43015-3 0  9990
2 43880  97.6343  48.2980 0015632 257.9972 101.9500 15.01919636240548
NEXUS (FO-99)           
1 43937U 19003F   23142.81975722  .00053775  00000+0  94087-3 0  9999
2 43937  97.0881 170.3845 0011898  20.4998 339.6729 15.50379638242114
JAISAT-1                
1 44419U 19038F   23143.50028557  .00023588  00000+0  83016-3 0  9994
2 44419  97.6736 124.4222 0016088  38.6388 321.5999 15.29208625214766
DUCHIFAT-3              
1 44854U 19089C   23143.47770188  .00007879  00000+0  53597-3 0  9999
2 44854  36.9614 238.9211 0008348 117.9141 242.2449 15.05906095189116
CAS-6 (TIANQIN 1)       
1 44881U 19093C   23143.45880045  .00001267  00000+0  16414-3 0  9998
2 44881  97.8616 222.3311 0015411 154.0552 206.1437 14.82484089185131
RS-44 & BREEZE-KM R/B   
1 44909U 19096E   23142.89125592  .00000017  00000+0  30857-4 0  9998
2 44909  82.5236   4.7579 0216407 246.0285 111.8023 12.79720691158928
BY70-2                  
1 45857U 20042B   23143.49741535  .00018648  00000+0  19523-2 0  9996
2 45857  97.9250 223.3284 0010145  95.8525 264.3849 14.89612892155863
SALSAT                  
1 46495U 20068K   23142.63426118  .00004480  00000+0  29857-3 0  9996
2 46495  97.7692  90.3746 0014838 200.1340 159.9304 15.07521879145223
RADFXSAT-2 (AO-109)     
1 47311U 21002C   23142.76531714  .00025004  00000+0  67067-3 0  9996
2 47311  60.6792 156.1787 0016347 160.6833 199.4884 15.37800805130375
UVSQ-SAT                
1 47438U 21006AB  23143.14687740  .00016096  00000+0  67181-3 0  9992
2 47438  97.3856 200.6254 0010949 162.4978 197.6638 15.23683947128835
DIY-1 (ARDUIQUBE)       
1 47963U 21022AH  23142.67653535  .00176558  00000+0  28252-2 0  9990
2 47963  97.4987  50.0175 0009848  68.6517 291.5785 15.52453961118621
XW-3 (CAS-9)            
1 50466U 21131B   23143.55355395  .00000713  00000+0  24580-3 0  9994
2 50466  98.5515 225.1754 0003908 197.0128 163.0929 14.38890902 73813
TEVEL-3                 
1 50988U 22002E   23143.43615280  .00019576  00000+0  80399-3 0  9997
2 50988  97.4339 210.5858 0006322 326.7875  33.2964 15.24224356 74997
TEVEL-8                 
1 50989U 22002F   23143.45383847  .00020255  00000+0  83329-3 0  9993
2 50989  97.4355 210.6598 0006342 325.5029  34.5796 15.24160091 74990
TEVEL-5                 
1 50998U 22002Q   23143.39381710  .00021325  00000+0  85490-3 0  9993
2 50998  97.4333 210.8988 0007430 318.9216  41.1462 15.25011909 75016
TEVEL-6                 
1 50999U 22002R   23143.45795347  .00021178  00000+0  84900-3 0  9997
2 50999  97.4332 210.9576 0007427 318.4607  41.6065 15.25014085 75028
TEVEL-1                 
1 51013U 22002AF  23143.44522259  .00019834  00000+0  81558-3 0  9996
2 51013  97.4334 210.5413 0006219 326.5752  33.5092 15.24180777 74999
TEVEL-7                 
1 51062U 22002CG  23143.45510661  .00020469  00000+0  84163-3 0  9996
2 51062  97.4351 210.6349 0006306 324.9318  35.1503 15.24175839 74996
TEVEL-4                 
1 51063U 22002CH  23143.46037679  .00020369  00000+0  83876-3 0  9990
2 51063  97.4351 210.6254 0006299 325.0033  35.0790 15.24127121 74997
TEVEL-2                 
1 51069U 22002CP  23143.37235455  .00019705  00000+0  80931-3 0  9999
2 51069  97.4336 210.4950 0006272 326.8847  33.1997 15.24222426 74981
GREENCUBE               
1 53106U 22080B   23139.88081682 -.00000003  00000+0  00000+0 0  9998
2 53106  70.1627 329.5611 0008345 191.2921 168.7552  6.42557176 19931
RS29S (SXC3-2110 CYCLO*)
1 53373U 22096D   23143.41872976  .00032758  00000+0  88739-3 0  9999
2 53373  97.4155  49.4546 0002164 107.9403 252.2078 15.37594706 43889
RS32S (SXC3-212 MONITO*)
1 53374U 22096E   23143.43993831  .00030007  00000+0  83363-3 0  9999
2 53374  97.4135  49.3921 0002166 123.3784 236.7667 15.36828531 43886
RS34S (SXC3-218 KUZBAS*)
1 53375U 22096F   23143.49648676  .00023519  00000+0  69182-3 0  9993
2 53375  97.4160  49.2012 0002111 122.5393 237.6054 15.35085739 43875
RS23S (SXC3-21 UTMN)    
1 53376U 22096G   23143.52725095  .00024147  00000+0  69895-3 0  9998
2 53376  97.4154  49.3072 0002097 112.6924 247.4542 15.35587339 43884
RS28S (SXC3-214 MIET-A*)
1 53377U 22096H   23143.43508841  .00021653  00000+0  64372-3 0  9991
2 53377  97.4164  49.1363 0002028 124.8382 235.3052 15.34768891 43867
RS26S (KAI-1)           
1 53378U 22096J   23143.38652126  .00018404  00000+0  57094-3 0  9995
2 53378  97.4179  48.9073 0002111 123.5382 236.6063 15.33449585 43847
RS19S (SXC3-219 ISOI)   
1 53381U 22096M   23143.39552245  .00020690  00000+0  60039-3 0  9994
2 53381  97.4155  49.3259 0005191 126.5529 233.6193 15.35529218 43871
RS21S (CUBESX-HSE-2)    
1 53383U 22096P   23143.50526074  .00023663  00000+0  67771-3 0  9993
2 53383  97.4158  49.4947 0005591 128.1401 232.0347 15.35911844 43898
RS30S (SXC3-217 SIREN)  
1 53384U 22096Q   23143.51390430  .00019915  00000+0  59596-3 0  9991
2 53384  97.4169  49.3407 0005608 126.6697 233.5062 15.34565381 43889
RS20S (GEOSCAN-EDELVEIS)
1 53385U 22096R   23143.40966178  .00033205  00000+0  85713-3 0  9996
2 53385  97.4150  49.9078 0005991 125.7498 234.4306 15.39065196 43946
RS33S (SXC3-215 VIZARD) 
1 53386U 22096S   23143.44449522  .00037982  00000+0  88071-3 0  9996
2 53386  97.4145  50.4680 0006752 125.6800 234.5077 15.42290097 43972
CAS-5A (FO-118)         
1 54684U 22167C   23143.55227629  .00010661  00000+0  59706-3 0  9999
2 54684  97.5596 281.3138 0014425  63.9947 296.2768 15.13517490 24956
